{
  "type": "FeatureCollection",
  "features": [
    {
      "type": "Feature",
      "properties": {
        "norad_id": 55973,
        "name": "TIANMU-1 03",
        "group": "weather",
        "lat": 24.723053640544734,
        "lon": 159.94987708611112,
        "alt_km": 439.09717391724007,
        "timestamp": "2025-12-26T09:30:53.270344+00:00",
        "meta_object_name": "TIANMU-1 03",
        "meta_object_id": "2023-039A",
        "meta_epoch": "2025-12-26T04:43:57.383616",
        "meta_mean_motion": 15.41318587,
        "meta_eccentricity": 0.0003709,
        "meta_inclination": 97.5115,
        "meta_ra_of_asc_node": 163.2281,
        "meta_arg_of_pericenter": 21.5785,
        "meta_mean_anomaly": 338.5617,
        "meta_ephemeris_type": 0,
        "meta_classification_type": "U",
        "meta_norad_cat_id": 55973,
        "meta_element_set_no": 999,
        "meta_rev_at_epoch": 15413,
        "meta_bstar": 0.0003944,
        "meta_mean_motion_dot": 0.00016365,
        "meta_mean_motion_ddot": 0,
        "tle_line1": "1 55973U 23039A   25360.19719194  .00016365  00000+0  39440-3 0  9996",
        "tle_line2": "2 55973  97.5115 163.2281 0003709  21.5785 338.5617 15.41318587154139"
      },
      "geometry": {
        "type": "Point",
        "coordinates": [
          159.94987708611112,
          24.723053640544734
        ]
      }
    },
    {
      "type": "Feature",
      "properties": {
        "norad_id": 55974,
        "name": "TIANMU-1 04",
        "group": "weather",
        "lat": 23.90387228088258,
        "lon": -14.031720117070638,
        "alt_km": 443.05283903439795,
        "timestamp": "2025-12-26T09:30:53.270354+00:00",
        "meta_object_name": "TIANMU-1 04",
        "meta_object_id": "2023-039B",
        "meta_epoch": "2025-12-26T04:10:05.469888",
        "meta_mean_motion": 15.41662005,
        "meta_eccentricity": 0.0004309,
        "meta_inclination": 97.5047,
        "meta_ra_of_asc_node": 162.3896,
        "meta_arg_of_pericenter": 14.6585,
        "meta_mean_anomaly": 345.4786,
        "meta_ephemeris_type": 0,
        "meta_classification_type": "U",
        "meta_norad_cat_id": 55974,
        "meta_element_set_no": 999,
        "meta_rev_at_epoch": 15413,
        "meta_bstar": 0.0003851,
        "meta_mean_motion_dot": 0.00016161,
        "meta_mean_motion_ddot": 0,
        "tle_line1": "1 55974U 23039B   25360.17367442  .00016161  00000+0  38510-3 0  9991",
        "tle_line2": "2 55974  97.5047 162.3896 0004309  14.6585 345.4786 15.41662005154135"
      },
      "geometry": {
        "type": "Point",
        "coordinates": [
          -14.031720117070638,
          23.90387228088258
        ]
      }
    },
    {
      "type": "Feature",
      "properties": {
        "norad_id": 55975,
        "name": "TIANMU-1 05",
        "group": "weather",
        "lat": 10.93040193081298,
        "lon": -15.42873203111306,
        "alt_km": 445.55377151635275,
        "timestamp": "2025-12-26T09:30:53.270405+00:00",
        "meta_object_name": "TIANMU-1 05",
        "meta_object_id": "2023-039C",
        "meta_epoch": "2025-12-26T04:06:37.055808",
        "meta_mean_motion": 15.41274539,
        "meta_eccentricity": 0.0003875,
        "meta_inclination": 97.5094,
        "meta_ra_of_asc_node": 162.88,
        "meta_arg_of_pericenter": 41.1493,
        "meta_mean_anomaly": 319.0045,
        "meta_ephemeris_type": 0,
        "meta_classification_type": "U",
        "meta_norad_cat_id": 55975,
        "meta_element_set_no": 999,
        "meta_rev_at_epoch": 15411,
        "meta_bstar": 0.00038429,
        "meta_mean_motion_dot": 0.00015919,
        "meta_mean_motion_ddot": 0,
        "tle_line1": "1 55975U 23039C   25360.17126222  .00015919  00000+0  38429-3 0  9990",
        "tle_line2": "2 55975  97.5094 162.8800 0003875  41.1493 319.0045 15.41274539154112"
      },
      "geometry": {
        "type": "Point",
        "coordinates": [
          -15.42873203111306,
          10.93040193081298
        ]
      }
    },
    {
      "type": "Feature",
      "properties": {
        "norad_id": 55976,
        "name": "TIANMU-1 06",
        "group": "weather",
        "lat": 33.31257802817352,
        "lon": -11.438066052738874,
        "alt_km": 440.12547865042507,
        "timestamp": "2025-12-26T09:30:53.270418+00:00",
        "meta_object_name": "TIANMU-1 06",
        "meta_object_id": "2023-039D",
        "meta_epoch": "2025-12-26T04:12:34.595424",
        "meta_mean_motion": 15.41713122,
        "meta_eccentricity": 0.0004118,
        "meta_inclination": 97.5104,
        "meta_ra_of_asc_node": 163.3605,
        "meta_arg_of_pericenter": 34.9428,
        "meta_mean_anomaly": 325.2088,
        "meta_ephemeris_type": 0,
        "meta_classification_type": "U",
        "meta_norad_cat_id": 55976,
        "meta_element_set_no": 999,
        "meta_rev_at_epoch": 15413,
        "meta_bstar": 0.00038387,
        "meta_mean_motion_dot": 0.00016136,
        "meta_mean_motion_ddot": 0,
        "tle_line1": "1 55976U 23039D   25360.17540041  .00016136  00000+0  38387-3 0  9995",
        "tle_line2": "2 55976  97.5104 163.3605 0004118  34.9428 325.2088 15.41713122154137"
      },
      "geometry": {
        "type": "Point",
        "coordinates": [
          -11.438066052738874,
          33.31257802817352
        ]
      }
    },
    {
      "type": "Feature",
      "properties": {
        "norad_id": 56232,
        "name": "FENGYUN 3G",
        "group": "weather",
        "lat": -22.427338194568044,
        "lon": -2.739569278919068,
        "alt_km": 413.20298845808884,
        "timestamp": "2025-12-26T09:30:53.270429+00:00",
        "meta_object_name": "FENGYUN 3G",
        "meta_object_id": "2023-055A",
        "meta_epoch": "2025-12-26T00:53:20.198112",
        "meta_mean_motion": 15.52108299,
        "meta_eccentricity": 0.0003952,
        "meta_inclination": 49.9929,
        "meta_ra_of_asc_node": 158.829,
        "meta_arg_of_pericenter": 293.0279,
        "meta_mean_anomaly": 67.0271,
        "meta_ephemeris_type": 0,
        "meta_classification_type": "U",
        "meta_norad_cat_id": 56232,
        "meta_element_set_no": 999,
        "meta_rev_at_epoch": 15309,
        "meta_bstar": 0.00048782,
        "meta_mean_motion_dot": 0.00029713,
        "meta_mean_motion_ddot": 0,
        "tle_line1": "1 56232U 23055A   25360.03703933  .00029713  00000+0  48782-3 0  9990",
        "tle_line2": "2 56232  49.9929 158.8290 0003952 293.0279  67.0271 15.52108299153099"
      },
      "geometry": {
        "type": "Point",
        "coordinates": [
          -2.739569278919068,
          -22.427338194568044
        ]
      }
    },
    {
      "type": "Feature",
      "properties": {
        "norad_id": 57166,
        "name": "METEOR-M2 3",
        "group": "weather",
        "lat": 18.366587834790405,
        "lon": 50.803793942726486,
        "alt_km": 810.6331550440482,
        "timestamp": "2025-12-26T09:30:53.270442+00:00",
        "meta_object_name": "METEOR-M2 3",
        "meta_object_id": "2023-091A",
        "meta_epoch": "2025-12-26T04:22:07.964832",
        "meta_mean_motion": 14.24027639,
        "meta_eccentricity": 0.0003203,
        "meta_inclination": 98.636,
        "meta_ra_of_asc_node": 53.4854,
        "meta_arg_of_pericenter": 326.4837,
        "meta_mean_anomaly": 33.6139,
        "meta_ephemeris_type": 0,
        "meta_classification_type": "U",
        "meta_norad_cat_id": 57166,
        "meta_element_set_no": 999,
        "meta_rev_at_epoch": 12989,
        "meta_bstar": 1.7923e-05,
        "meta_mean_motion_dot": -2e-08,
        "meta_mean_motion_ddot": 0,
        "tle_line1": "1 57166U 23091A   25360.18203663 -.00000002  00000+0  17923-4 0  9993",
        "tle_line2": "2 57166  98.6360  53.4854 0003203 326.4837  33.6139 14.24027639129891"
      },
      "geometry": {
        "type": "Point",
        "coordinates": [
          50.803793942726486,
          18.366587834790405
        ]
      }
    },
    {
      "type": "Feature",
      "properties": {
        "norad_id": 57399,
        "name": "TIANMU-1 07",
        "group": "weather",
        "lat": -80.04525866433347,
        "lon": 96.74204099415972,
        "alt_km": 490.50378171659304,
        "timestamp": "2025-12-26T09:30:53.270477+00:00",
        "meta_object_name": "TIANMU-1 07",
        "meta_object_id": "2023-101A",
        "meta_epoch": "2025-12-26T03:35:33.885600",
        "meta_mean_motion": 15.28260936,
        "meta_eccentricity": 0.0004934,
        "meta_inclination": 97.2856,
        "meta_ra_of_asc_node": 49.7035,
        "meta_arg_of_pericenter": 46.847,
        "meta_mean_anomaly": 313.3182,
        "meta_ephemeris_type": 0,
        "meta_classification_type": "U",
        "meta_norad_cat_id": 57399,
        "meta_element_set_no": 999,
        "meta_rev_at_epoch": 13520,
        "meta_bstar": 0.00027471,
        "meta_mean_motion_dot": 7.494e-05,
        "meta_mean_motion_ddot": 0,
        "tle_line1": "1 57399U 23101A   25360.14969775  .00007494  00000+0  27471-3 0  9991",
        "tle_line2": "2 57399  97.2856  49.7035 0004934  46.8470 313.3182 15.28260936135203"
      },
      "geometry": {
        "type": "Point",
        "coordinates": [
          96.74204099415972,
          -80.04525866433347
        ]
      }
    }
  ]
}